{
  "type": "FeatureCollection",
  "features": [
    {
      "type": "Feature",
      "properties": {
        "norad_id": 30921,
        "name": "FENGYUN 1C DEB",
        "group": "fengyun-1c-debris",
        "lat": -54.67868590983238,
        "lon": 78.82746984184976,
        "alt_km": 795.8293088359624,
        "timestamp": "2025-12-04T19:33:59.882333+00:00",
        "meta_object_name": "FENGYUN 1C DEB",
        "meta_object_id": "1999-025AZK",
        "meta_epoch": "2025-12-04T05:01:37.013952",
        "meta_mean_motion": 14.32608662,
        "meta_eccentricity": 0.00174373,
        "meta_inclination": 98.8441,
        "meta_ra_of_asc_node": 65.5167,
        "meta_arg_of_pericenter": 64.2585,
        "meta_mean_anomaly": 357.6329,
        "meta_ephemeris_type": 0,
        "meta_classification_type": "U",
        "meta_norad_cat_id": 30921,
        "meta_element_set_no": 999,
        "meta_rev_at_epoch": 96702,
        "meta_bstar": 0.0041313631,
        "meta_mean_motion_dot": 0.0001121,
        "meta_mean_motion_ddot": 0,
        "tle_line1": "1 30921U 99025AZK 25338.20945618  .00011210  00000+0  41314-2 0  9995",
        "tle_line2": "2 30921  98.8441  65.5167 0017437  64.2585 357.6329 14.32608662967020"
      },
      "geometry": {
        "type": "Point",
        "coordinates": [
          78.82746984184976,
          -54.67868590983238
        ]
      }
    },
    {
      "type": "Feature",
      "properties": {
        "norad_id": 30922,
        "name": "FENGYUN 1C DEB",
        "group": "fengyun-1c-debris",
        "lat": -35.54336335464025,
        "lon": 1.1175168896313237,
        "alt_km": 844.1008440250625,
        "timestamp": "2025-12-04T19:33:59.882344+00:00",
        "meta_object_name": "FENGYUN 1C DEB",
        "meta_object_id": "1999-025AZL",
        "meta_epoch": "2025-12-02T12:32:56.440608",
        "meta_mean_motion": 14.17417772,
        "meta_eccentricity": 0.00148503,
        "meta_inclination": 98.6411,
        "meta_ra_of_asc_node": 352.6518,
        "meta_arg_of_pericenter": 81.4914,
        "meta_mean_anomaly": 71.8675,
        "meta_ephemeris_type": 0,
        "meta_classification_type": "U",
        "meta_norad_cat_id": 30922,
        "meta_element_set_no": 999,
        "meta_rev_at_epoch": 96419,
        "meta_bstar": 0.00079779732,
        "meta_mean_motion_dot": 1.575e-05,
        "meta_mean_motion_ddot": 0,
        "tle_line1": "1 30922U 99025AZL 25336.52287547  .00001575  00000+0  79780-3 0  9991",
        "tle_line2": "2 30922  98.6411 352.6518 0014850  81.4914  71.8675 14.17417772964196"
      },
      "geometry": {
        "type": "Point",
        "coordinates": [
          1.1175168896313237,
          -35.54336335464025
        ]
      }
    },
    {
      "type": "Feature",
      "properties": {
        "norad_id": 30925,
        "name": "FENGYUN 1C DEB",
        "group": "fengyun-1c-debris",
        "lat": 77.65555993559093,
        "lon": 64.65421489459165,
        "alt_km": 764.9351002949379,
        "timestamp": "2025-12-04T19:33:59.882352+00:00",
        "meta_object_name": "FENGYUN 1C DEB",
        "meta_object_id": "1999-025AZP",
        "meta_epoch": "2025-12-02T07:33:36.546048",
        "meta_mean_motion": 14.42841359,
        "meta_eccentricity": 0.0032682,
        "meta_inclination": 98.8823,
        "meta_ra_of_asc_node": 107.6578,
        "meta_arg_of_pericenter": 267.6181,
        "meta_mean_anomaly": 154.0428,
        "meta_ephemeris_type": 0,
        "meta_classification_type": "U",
        "meta_norad_cat_id": 30925,
        "meta_element_set_no": 999,
        "meta_rev_at_epoch": 96922,
        "meta_bstar": 0.0029562,
        "meta_mean_motion_dot": 9.896e-05,
        "meta_mean_motion_ddot": 0,
        "tle_line1": "1 30925U 99025AZP 25336.31500632  .00009896  00000+0  29562-2 0  9990",
        "tle_line2": "2 30925  98.8823 107.6578 0032682 267.6181 154.0428 14.42841359969228"
      },
      "geometry": {
        "type": "Point",
        "coordinates": [
          64.65421489459165,
          77.65555993559093
        ]
      }
    },
    {
      "type": "Feature",
      "properties": {
        "norad_id": 30926,
        "name": "FENGYUN 1C DEB",
        "group": "fengyun-1c-debris",
        "lat": -9.653621842692003,
        "lon": -79.82162322029978,
        "alt_km": 539.4309799299444,
        "timestamp": "2025-12-04T19:33:59.882361+00:00",
        "meta_object_name": "FENGYUN 1C DEB",
        "meta_object_id": "1999-025AZQ",
        "meta_epoch": "2025-12-03T06:31:11.785152",
        "meta_mean_motion": 14.8914935,
        "meta_eccentricity": 0.0166855,
        "meta_inclination": 98.8012,
        "meta_ra_of_asc_node": 276.9525,
        "meta_arg_of_pericenter": 52.0179,
        "meta_mean_anomaly": 309.5973,
        "meta_ephemeris_type": 0,
        "meta_classification_type": "U",
        "meta_norad_cat_id": 30926,
        "meta_element_set_no": 999,
        "meta_rev_at_epoch": 626,
        "meta_bstar": 0.00068893,
        "meta_mean_motion_dot": 8.38e-05,
        "meta_mean_motion_ddot": 0,
        "tle_line1": "1 30926U 99025AZQ 25337.27166418  .00008380  00000+0  68893-3 0  9995",
        "tle_line2": "2 30926  98.8012 276.9525 0166855  52.0179 309.5973 14.89149350  6265"
      },
      "geometry": {
        "type": "Point",
        "coordinates": [
          -79.82162322029978,
          -9.653621842692003
        ]
      }
    },
    {
      "type": "Feature",
      "properties": {
        "norad_id": 30927,
        "name": "FENGYUN 1C DEB",
        "group": "fengyun-1c-debris",
        "lat": -43.141303484518374,
        "lon": 47.858075841197376,
        "alt_km": 847.3119963128229,
        "timestamp": "2025-12-04T19:33:59.882370+00:00",
        "meta_object_name": "FENGYUN 1C DEB",
        "meta_object_id": "1999-025AZR",
        "meta_epoch": "2025-12-02T23:27:28.547136",
        "meta_mean_motion": 14.08892452,
        "meta_eccentricity": 0.00987852,
        "meta_inclination": 99.1836,
        "meta_ra_of_asc_node": 37.2663,
        "meta_arg_of_pericenter": 33.6709,
        "meta_mean_anomaly": 327.0684,
        "meta_ephemeris_type": 0,
        "meta_classification_type": "U",
        "meta_norad_cat_id": 30927,
        "meta_element_set_no": 999,
        "meta_rev_at_epoch": 95546,
        "meta_bstar": 0.0020438482,
        "meta_mean_motion_dot": 3.651e-05,
        "meta_mean_motion_ddot": 0,
        "tle_line1": "1 30927U 99025AZR 25336.97741374  .00003651  00000+0  20438-2 0  9990",
        "tle_line2": "2 30927  99.1836  37.2663 0098785  33.6709 327.0684 14.08892452955463"
      },
      "geometry": {
        "type": "Point",
        "coordinates": [
          47.858075841197376,
          -43.141303484518374
        ]
      }
    },
    {
      "type": "Feature",
      "properties": {
        "norad_id": 30928,
        "name": "FENGYUN 1C DEB",
        "group": "fengyun-1c-debris",
        "lat": -79.48250151215179,
        "lon": -168.118533736443,
        "alt_km": 1464.2705725708483,
        "timestamp": "2025-12-04T19:33:59.882379+00:00",
        "meta_object_name": "FENGYUN 1C DEB",
        "meta_object_id": "1999-025AZS",
        "meta_epoch": "2025-12-04T05:47:32.126784",
        "meta_mean_motion": 13.22226233,
        "meta_eccentricity": 0.04509313,
        "meta_inclination": 98.8835,
        "meta_ra_of_asc_node": 68.7839,
        "meta_arg_of_pericenter": 52.6576,
        "meta_mean_anomaly": 4.0587,
        "meta_ephemeris_type": 0,
        "meta_classification_type": "U",
        "meta_norad_cat_id": 30928,
        "meta_element_set_no": 999,
        "meta_rev_at_epoch": 90236,
        "meta_bstar": 0.0014133009,
        "meta_mean_motion_dot": 9.73e-06,
        "meta_mean_motion_ddot": 0,
        "tle_line1": "1 30928U 99025AZS 25338.24134406  .00000973  00000+0  14133-2 0  9994",
        "tle_line2": "2 30928  98.8835  68.7839 0450931  52.6576   4.0587 13.22226233902369"
      },
      "geometry": {
        "type": "Point",
        "coordinates": [
          -168.118533736443,
          -79.48250151215179
        ]
      }
    },
    {
      "type": "Feature",
      "properties": {
        "norad_id": 30930,
        "name": "FENGYUN 1C DEB",
        "group": "fengyun-1c-debris",
        "lat": 6.56508879673144,
        "lon": 6.508214758697006,
        "alt_km": 811.4432859186245,
        "timestamp": "2025-12-04T19:33:59.882388+00:00",
        "meta_object_name": "FENGYUN 1C DEB",
        "meta_object_id": "1999-025AZU",
        "meta_epoch": "2025-12-02T07:40:45.179040",
        "meta_mean_motion": 14.37352769,
        "meta_eccentricity": 0.0109503,
        "meta_inclination": 98.2165,
        "meta_ra_of_asc_node": 5.0765,
        "meta_arg_of_pericenter": 137.3637,
        "meta_mean_anomaly": 286.006,
        "meta_ephemeris_type": 0,
        "meta_classification_type": "U",
        "meta_norad_cat_id": 30930,
        "meta_element_set_no": 999,
        "meta_rev_at_epoch": 98182,
        "meta_bstar": 0.00047615,
        "meta_mean_motion_dot": 1.481e-05,
        "meta_mean_motion_ddot": 0,
        "tle_line1": "1 30930U 99025AZU 25336.31996735  .00001481  00000+0  47615-3 0  9991",
        "tle_line2": "2 30930  98.2165   5.0765 0109503 137.3637 286.0060 14.37352769981826"
      },
      "geometry": {
        "type": "Point",
        "coordinates": [
          6.508214758697006,
          6.56508879673144
        ]
      }
    }
  ]
}